<?xml version="1.0" encoding="UTF-8"?>
<kml xmlns="http://www.opengis.net/kml/2.2"><Document>
<name>Находки вещей 13.08.2026 — Курумды</name>
<Placemark><name>Синий рюкзак (опознан: Николая)</name><description>триангуляция дальномер+GPS, General #1641. Высота 4663 м.</description><Point><altitudeMode>absolute</altitudeMode><coordinates>73.586792,39.482656,4663</coordinates></Point></Placemark>
<Placemark><name>Палка Komperdell №1</name><description>триангуляция, General #1641. Высота 4529 м.</description><Point><altitudeMode>absolute</altitudeMode><coordinates>73.585463,39.483176,4529</coordinates></Point></Placemark>
<Placemark><name>Бирюзовая крышка/миска</name><description>триангуляция, General #1641. Высота 4531 м.</description><Point><altitudeMode>absolute</altitudeMode><coordinates>73.585443,39.483144,4531</coordinates></Point></Placemark>
<Placemark><name>Белый стакан, красная маркировка</name><description>GPS дрона у объекта, Вещи #1756; сверено с телеметрией. Высота 4552 м.</description><Point><altitudeMode>absolute</altitudeMode><coordinates>73.585137,39.483403,4552</coordinates></Point></Placemark>
<Placemark><name>КАНДИДАТ: бирюзовый предмет в щели, 4440 м (ув. 3)</name><description>Лазерный дальномер, серия из 7 фото 15.08 16:57–16:58 с дистанции 107,5–107,9 м; ±11 м. Гладкое вытянутое тело 0,3–0,9 м поперёк щели между глыбами, цвет из семейства найденных вещей. В 158 м ниже и севернее кластера палка/крышка, 38 м от линии падения — первая находка ниже 4529 м. Нужно зависание с дальномером и зумом. Высота 4439,6 м.</description><Point><altitudeMode>absolute</altitudeMode><coordinates>73.585859,39.484573,4440</coordinates></Point></Placemark>
<Placemark><name>КАНДИДАТ: Г-образный тёмный предмет (не подтверждено)</name><description>DJI_20260813152839_0005_Z 1:42–1:44. Координаты — GPS дрона (зум-камера, объект может быть в стороне). Изолированный тёмный Г-образный предмет на чистом снегу, на камень не похож; интерпретация «ледоруб» сомнительна (пропорции). В TG замечен без координат (#1426, #1430). Зона интереса 5385–5485 м, см. docs/video-analysis.md. Высота 5443 м.</description><Point><altitudeMode>absolute</altitudeMode><coordinates>73.59203,39.47732,5443</coordinates></Point></Placemark>
<Placemark><name>Оранжевая куртка (координата НЕ измерена — не выдавать как точку)</name><description>Стёганая ткань с белой биркой, лежит в скоплении палки/крышки/стакана. Оценки положения расходятся на ~29 м (геопроекция 39.48328,73.585135 против расчёта CC 39.483125,73.585408) — точка здесь условная, середина оценок. Формулировка для штаба: «в том же скоплении, что палка и крышка». Исходники: дрон 183727/183004/163855, вертолёт C0044/C0045.</description><Point><altitudeMode>absolute</altitudeMode><coordinates>73.585272,39.483203,4545</coordinates></Point></Placemark>
<!-- Линия падения и поисковый коридор: search_vectors.kml (по рельефу, до 4150 м).
     Прежняя прямая линия с концом 4233 м удалена — устарела (см. README реестра). -->
</Document></kml>
